[{"OBJECT_NAME":"STARLINK-33869","OBJECT_ID":"2025-091R","EPOCH":"2026-03-09T22:35:43.173888","MEAN_MOTION":15.27610281,"ECCENTRICITY":0.00015733,"INCLINATION":42.9958,"RA_OF_ASC_NODE":50.8469,"ARG_OF_PERICENTER":94.4288,"MEAN_ANOMALY":265.6744,"EPHEMERIS_TYPE":0,"CLASSIFICATION_TYPE":"U","NORAD_CAT_ID":63790,"ELEMENT_SET_NO":999,"REV_AT_EPOCH":4889,"BSTAR":0.00094604111,"MEAN_MOTION_DOT":0.00025887,"MEAN_MOTION_DDOT":0},{"OBJECT_NAME":"OBJECT D","OBJECT_ID":"2025-197D","EPOCH":"2026-03-09T23:30:56.303712","MEAN_MOTION":15.25287442,"ECCENTRICITY":0.00144425,"INCLINATION":97.4091,"RA_OF_ASC_NODE":257.3677,"ARG_OF_PERICENTER":3.398,"MEAN_ANOMALY":356.7353,"EPHEMERIS_TYPE":0,"CLASSIFICATION_TYPE":"U","NORAD_CAT_ID":65491,"ELEMENT_SET_NO":999,"REV_AT_EPOCH":2822,"BSTAR":0.00037200129,"MEAN_MOTION_DOT":9.321e-5,"MEAN_MOTION_DDOT":0}]
